NORAD_CAT_ID,OBJECT_NAME,OBJECT_TYPE,EPOCH,MEAN_MOTION,ECCENTRICITY,INCLINATION,RA_OF_ASC_NODE,ARG_OF_PERICENTER,MEAN_ANOMALY,BSTAR,MEAN_MOTION_DOT,MEAN_MOTION_DDOT,TLE_LINE0,TLE_LINE1,TLE_LINE2,SEMIMAJOR_AXIS,PERIOD,APOGEE,PERIGEE,DECAYED
54793.0,STARLINK-5433,PAYLOAD,2024-06-06 07:26:44,15.0884114,0.0001588,53.2172,18.3952,86.1084,274.009,0.00014506,2.021e-05,0.0,0 STARLINK-5433,1 54793U 22175AM  24158.31023414  .00002021  00000-0  14506-3 0  9997,2 54793  53.2172  18.3952 0001588  86.1084 274.0090 15.08841140 83440,6917.877,95.437,540.84,538.643,0.0
54793.0,STARLINK-5433,PAYLOAD,2024-06-07 00:55:58,15.08839046,0.0001582,53.219,15.1258,82.5314,277.5858,0.00015714,2.214e-05,0.0,0 STARLINK-5433,1 54793U 22175AM  24159.03887624  .00002214  00000-0  15714-3 0  9994,2 54793  53.2190  15.1258 0001582  82.5314 277.5858 15.08839046 81398,6917.883,95.438,540.843,538.654,0.0
54793.0,STARLINK-5433,PAYLOAD,2024-06-07 07:17:31,15.08838672,0.0001529,53.2203,13.9355,75.2424,284.8737,0.00010974,1.459e-05,0.0,0 STARLINK-5433,1 54793U 22175AM  24159.30383674  .00001459  00000-0  10974-3 0  9993,2 54793  53.2203  13.9355 0001529  75.2424 284.8737 15.08838672 83594,6917.884,95.438,540.807,538.692,0.0
54793.0,STARLINK-5433,PAYLOAD,2024-06-07 21:36:00,15.08838815,0.0001471,53.2208,11.2596,77.5725,282.5432,4.5366e-05,4.34e-06,0.0,0 STARLINK-5433,1 54793U 22175AM  24159.90000159  .00000434  00000-0  45366-4 0  9999,2 54793  53.2208  11.2596 0001471  77.5725 282.5432 15.08838815 83688,6917.884,95.438,540.767,538.731,0.0
54793.0,STARLINK-5433,PAYLOAD,2024-06-08 07:08:18,15.08840271,0.0001629,53.2209,9.4742,81.573,278.5447,7.6017e-05,9.22e-06,0.0,0 STARLINK-5433,1 54793U 22175AM  24160.29744030  .00000922  00000-0  76017-4 0  9995,2 54793  53.2209   9.4742 0001629  81.5730 278.5447 15.08840271 81584,6917.88,95.438,540.871,538.618,0.0
54793.0,STARLINK-5433,PAYLOAD,2024-06-08 21:26:46,15.0884346,0.000138,53.2193,6.7971,79.5514,280.5633,0.00016571,2.351e-05,0.0,0 STARLINK-5433,1 54793U 22175AM  24160.89359315  .00002351  00000-0  16571-3 0  9995,2 54793  53.2193   6.7971 0001380  79.5514 280.5633 15.08843460 83834,6917.87,95.437,540.689,538.78,0.0
54793.0,STARLINK-5433,PAYLOAD,2024-06-08 23:02:09,15.08849767,0.0001628,53.2183,6.5005,79.5852,280.5324,0.00015277,2.145e-05,0.0,0 STARLINK-5433,1 54793U 22175AM  24160.95983249  .00002145  00000-0  15277-3 0  9994,2 54793  53.2183   6.5005 0001628  79.5852 280.5324 15.08849767 81683,6917.851,95.437,540.842,538.589,0.0
54793.0,STARLINK-5433,PAYLOAD,2024-06-09 13:20:38,15.0883473,0.0001868,53.2169,3.8283,78.278,281.8422,4.7487e-05,4.68e-06,0.0,0 STARLINK-5433,1 54793U 22175AM  24161.55600353  .00000468  00000-0  47487-4 0  9998,2 54793  53.2169   3.8283 0001868  78.2780 281.8422 15.08834730 81774,6917.896,95.438,541.054,538.469,0.0
54793.0,STARLINK-5433,PAYLOAD,2024-06-09 19:42:11,15.08834627,0.000166,53.2177,2.6381,87.3673,272.7509,4.2247e-05,3.84e-06,0.0,0 STARLINK-5433,1 54793U 22175AM  24161.82096427  .00000384  00000-0  42247-4 0  9995,2 54793  53.2177   2.6381 0001660  87.3673 272.7509 15.08834627 83975,6917.897,95.438,540.91,538.613,0.0
54793.0,STARLINK-5433,PAYLOAD,2024-06-10 06:49:53,15.08838227,0.0001699,53.2183,0.5563,87.6324,272.4862,9.1082e-05,1.162e-05,0.0,0 STARLINK-5433,1 54793U 22175AM  24162.28464408  .00001162  00000-0  91082-4 0  9990,2 54793  53.2183   0.5563 0001699  87.6324 272.4862 15.08838227 84047,6917.886,95.438,540.926,538.575,0.0
54793.0,STARLINK-5433,PAYLOAD,2024-06-10 19:32:58,15.08838838,0.0001634,53.2177,358.1777,85.9842,274.1337,0.0003782,5.736e-05,0.0,0 STARLINK-5433,1 54793U 22175AM  24162.81456431  .00005736  00000-0  37820-3 0  9996,2 54793  53.2177 358.1777 0001634  85.9842 274.1337 15.08838838 81966,6917.884,95.438,540.879,538.619,0.0
54793.0,STARLINK-5433,PAYLOAD,2024-06-10 22:43:44,15.08847105,0.0001599,53.218,357.5814,91.6714,268.4461,0.0003923,5.962e-05,0.0,0 STARLINK-5433,1 54793U 22175AM  24162.94704026  .00005962  00000-0  39230-3 0  9994,2 54793  53.2180 357.5814 0001599  91.6714 268.4461 15.08847105 84141,6917.859,95.437,540.83,538.618,0.0
54793.0,STARLINK-5433,PAYLOAD,2024-06-11 22:34:31,15.08848894,0.0001542,53.2181,353.1204,87.292,272.8248,0.0002229,3.262e-05,0.0,0 STARLINK-5433,1 54793U 22175AM  24163.94063877  .00003262  00000-0  22290-3 0  9996,2 54793  53.2181 353.1204 0001542  87.2920 272.8248 15.08848894 82130,6917.853,95.437,540.785,538.651,0.0
54793.0,STARLINK-5433,PAYLOAD,2024-06-12 19:14:32,15.0883808,0.0001251,53.2181,349.2492,87.1651,272.9485,-4.5745e-05,-1.016e-05,0.0,0 STARLINK-5433,1 54793U 22175AM  24164.80176118 -.00001016  00000-0 -45745-4 0  9993,2 54793  53.2181 349.2492 0001251  87.1651 272.9485 15.08838080 82266,6917.886,95.438,540.617,538.886,0.0
54793.0,STARLINK-5433,PAYLOAD,2024-06-12 22:25:18,15.0884125,0.0001357,53.2183,348.6592,92.2404,267.8744,-1.8619e-05,-5.84e-06,0.0,0 STARLINK-5433,1 54793U 22175AM  24164.93424215 -.00000584  00000-0 -18619-4 0  9990,2 54793  53.2183 348.6592 0001357  92.2404 267.8744 15.08841250 84448,6917.877,95.437,540.68,538.803,0.0
54793.0,STARLINK-5433,PAYLOAD,2024-06-13 17:29:56,15.08844158,0.0001367,53.2179,345.0898,95.4201,264.6947,8.4795e-05,1.062e-05,0.0,0 STARLINK-5433,1 54793U 22175AM  24165.72912217  .00001062  00000-0  84795-4 0  9990,2 54793  53.2179 345.0898 0001367  95.4201 264.6947 15.08844158 84567,6917.868,95.437,540.678,538.787,0.0
54793.0,STARLINK-5433,PAYLOAD,2024-06-14 18:56:06,15.08842162,0.0001216,53.2178,340.3356,89.4359,270.6772,7.2149e-05,8.61e-06,0.0,0 STARLINK-5433,1 54793U 22175AM  24166.78896459  .00000861  00000-0  72149-4 0  9992,2 54793  53.2178 340.3356 0001216  89.4359 270.6772 15.08842162 84727,6917.874,95.437,540.58,538.898,0.0
54793.0,STARLINK-5433,PAYLOAD,2024-06-15 04:28:25,15.08838519,0.0001109,53.2171,338.5517,86.2151,273.8968,2.2412e-05,6.9e-07,0.0,0 STARLINK-5433,1 54793U 22175AM  24167.18640666  .00000069  00000-0  22412-4 0  9992,2 54793  53.2171 338.5517 0001109  86.2151 273.8968 15.08838519 84783,6917.885,95.438,540.517,538.983,0.0
54793.0,STARLINK-5433,PAYLOAD,2024-06-15 18:46:53,15.08844638,0.0001304,53.2186,335.8749,95.3912,264.7229,0.00013162,1.808e-05,0.0,0 STARLINK-5433,1 54793U 22175AM  24167.78256565  .00001808  00000-0  13162-3 0  9992,2 54793  53.2186 335.8749 0001304  95.3912 264.7229 15.08844638 84877,6917.866,95.437,540.633,538.829,0.0
54793.0,STARLINK-5433,PAYLOAD,2024-06-16 10:40:45,15.08842902,0.0001142,53.2183,332.903,91.4508,268.6615,0.00013145,1.805e-05,0.0,0 STARLINK-5433,1 54793U 22175AM  24168.44496564  .00001805  00000-0  13145-3 0  9999,2 54793  53.2183 332.9030 0001142  91.4508 268.6615 15.08842902 84978,6917.872,95.437,540.527,538.946,0.0
54793.0,STARLINK-5433,PAYLOAD,2024-06-16 18:37:40,15.08846594,0.0001131,53.2181,331.4157,89.7117,270.4005,0.00014064,1.952e-05,0.0,0 STARLINK-5433,1 54793U 22175AM  24168.77616245  .00001952  00000-0  14064-3 0  9999,2 54793  53.2181 331.4157 0001131  89.7117 270.4005 15.08846594 85026,6917.86,95.437,540.508,538.943,0.0
54793.0,STARLINK-5433,PAYLOAD,2024-06-17 20:03:51,15.08843363,0.0001348,53.22,326.6535,82.7442,277.3704,3.1915e-07,-2.83e-06,0.0,0 STARLINK-5433,1 54793U 22175AM  24169.83600839 -.00000283  00000-0  31915-6 0  9993,2 54793  53.2200 326.6535 0001348  82.7442 277.3704 15.08843363 85188,6917.87,95.437,540.668,538.803,0.0
54793.0,STARLINK-5433,PAYLOAD,2024-06-18 04:00:46,15.08843458,0.0001391,53.2203,325.1675,79.4727,280.6422,5.367e-06,-2.03e-06,0.0,0 STARLINK-5433,1 54793U 22175AM  24170.16720781 -.00000203  00000-0  53670-5 0  9993,2 54793  53.2203 325.1675 0001391  79.4727 280.6422 15.08843458 83072,6917.87,95.437,540.697,538.773,0.0
54793.0,STARLINK-5433,PAYLOAD,2024-06-18 13:33:05,15.08843886,0.0001456,53.2191,323.3862,81.4361,278.6797,5.666e-05,6.14e-06,0.0,0 STARLINK-5433,1 54793U 22175AM  24170.56464633  .00000614  00000-0  56660-4 0  9994,2 54793  53.2191 323.3862 0001456  81.4361 278.6797 15.08843886 85298,6917.869,95.437,540.741,538.726,0.0
54793.0,STARLINK-5433,PAYLOAD,2024-06-18 16:43:51,15.08837925,8.51e-05,53.2197,322.7878,101.7525,258.3563,0.00019347,2.793e-05,0.0,0 STARLINK-5433,1 54793U 22175AM  24170.69712525  .00002793  00000-0  19347-3 0  9994,2 54793  53.2197 322.7878 0000851 101.7525 258.3563 15.08837925 85316,6917.887,95.438,540.34,539.163,0.0
54793.0,STARLINK-5433,PAYLOAD,2024-06-19 10:13:06,15.08827499,0.0001307,53.2188,319.5177,91.8579,268.2563,0.00014758,2.061e-05,0.0,0 STARLINK-5433,1 54793U 22175AM  24171.42577326  .00002061  00000-0  14758-3 0  9993,2 54793  53.2188 319.5177 0001307  91.8579 268.2563 15.08827499 83264,6917.919,95.438,540.688,538.879,0.0
54793.0,STARLINK-5433,PAYLOAD,2024-06-19 13:23:52,15.08838561,0.000132,53.2182,318.9233,88.1387,271.9757,2.5179e-05,1.13e-06,0.0,0 STARLINK-5433,1 54793U 22175AM  24171.55824936  .00000113  00000-0  25179-4 0  9995,2 54793  53.2182 318.9233 0001320  88.1387 271.9757 15.08838561 85445,6917.885,95.438,540.663,538.837,0.0
54793.0,STARLINK-5433,PAYLOAD,2024-06-19 16:34:38,15.08837655,0.0001355,53.2173,318.3278,90.6034,269.5114,7.4552e-05,8.99e-06,0.0,0 STARLINK-5433,1 54793U 22175AM  24171.69072863  .00000899  00000-0  74552-4 0  9994,2 54793  53.2173 318.3278 0001355  90.6034 269.5114 15.08837655 83309,6917.888,95.438,540.69,538.815,0.0
54793.0,STARLINK-5433,PAYLOAD,2024-06-20 14:50:03,15.08840573,0.0001215,53.2186,314.1684,86.398,273.7151,4.2305e-05,3.86e-06,0.0,0 STARLINK-5433,1 54793U 22175AM  24172.61809030  .00000386  00000-0  42305-4 0  9993,2 54793  53.2186 314.1684 0001215  86.3980 273.7151 15.08840573 85601,6917.879,95.438,540.584,538.903,0.0
54793.0,STARLINK-5433,PAYLOAD,2024-06-20 16:25:25,15.08844576,0.0001184,53.2188,313.8689,86.7263,273.3865,2.6392e-05,1.32e-06,0.0,0 STARLINK-5433,1 54793U 22175AM  24172.68432806  .00000132  00000-0  26392-4 0  9990,2 54793  53.2188 313.8689 0001184  86.7263 273.3865 15.08844576 85613,6917.866,95.437,540.55,538.912,0.0
